[Satellite]
VERSION=1.1
NAME=FLOCK 1C-11
NICKNAME=FLOCK 1C-11
TLE1=1 40033U 14033Z   15055.44931685  .00002676  00000-0  30544-3 0  9997
TLE2=2 40033  97.9693 315.6753 0012751 180.4754 179.6361 14.86893612 37045
